#aV2020  9 18  0  0  0.00000000     288 DD+AD WGS84 FIT  NGA
## 2123 432000.00000000   300.00000000 59110 0.0000000000000
+   31     1  2  3  4  5  6  7  8  9 10 11 12 13 15 16 17 18
+         19 20 21 22 23 24 25 26 27 28 29 30 31 32  0  0  0
+          0  0  0  0  0  0  0  0  0  0  0  0  0  0  0  0  0
+          0  0  0  0  0  0  0  0  0  0  0  0  0  0  0  0  0
+          0  0  0  0  0  0  0  0  0  0  0  0  0  0  0  0  0
++         2  2  2  2  2  2  2  2  2  2  2  2  2  2  2  2  2
++         2  2  2  2  2  2  2  2  2  2  2  2  2  2  0  0  0
++         0  0  0  0  0  0  0  0  0  0  0  0  0  0  0  0  0
++         0  0  0  0  0  0  0  0  0  0  0  0  0  0  0  0  0
++         0  0  0  0  0  0  0  0  0  0  0  0  0  0  0  0  0
%c cc cc ccc ccc cccc cccc cccc cccc ccccc ccccc ccccc ccccc
%c cc cc ccc ccc cccc cccc cccc cccc ccccc ccccc ccccc ccccc
%f  0.0000000  0.000000000  0.00000000000  0.000000000000000
%f  0.0000000  0.000000000  0.00000000000  0.000000000000000
%i    0    0    0    0      0      0      0      0         0
%i    0    0    0    0      0      0      0      0         0
/*      NGA, ST. LOUIS,MO.                                  
/*   EPHEMERIS COMPUTED FROM 2 DAYS OF DATA                 
/*   EPOCHA v5 SMOOTHER                                     
/*   G1762 IERS2010 SATAF SATAPC                            
*  2020  9 18  6 10  0.00000000
P  1  10349.824406 -19693.016039 -14491.371673     35.895828                    
V  1  15608.488998  -9306.554368  24508.006712     -0.005271                    
P  2 -21573.126250  14600.667066  -4449.467602   -517.973107                    
V  2   2982.810936  -6418.790697 -31091.483232     -0.051558                    
P  3    -71.741354 -16014.105867 -21286.513599   -302.251647                    
V  3  24870.917572  10013.224346  -7546.489420     -0.106107                    
P  4   1026.881086 -26094.744674  -4722.823991   -137.142235                    
V  4   3307.368148   5746.510849 -31019.153497     -0.041042                    
P  5 -20018.185271   4938.586697  16695.944348    -21.356328                    
V  5 -19304.817057  -9504.902522 -19962.481719     -0.008751                    
P  6 -20672.696139   1665.092304 -16561.405755   -326.608803                    
V  6  15982.499655 -13802.356023 -21234.295827     -0.032211                    
P  7  -6839.694987 -14133.503560  21707.277872   -374.935825                    
V  7  21976.802770 -15482.257558  -3688.252016     -0.081519                    
P  8   7191.798237 -20915.736045  14520.579889    -48.380814                    
V  8   4568.102016  18052.969818  24015.871170     -0.013901                    
P  9  -8121.667477 -24367.554468   6672.688805   -287.685843                    
V  9   1741.053844  -8877.647583 -30060.771288     -0.055895                    
P 10  23871.140820  11769.809093   2196.943137   -457.539962                    
V 10  -3391.363744   1179.751504  31553.896420     -0.098066                    
P 11  11123.016609 -24328.467854   -830.189700   -161.192021                    
V 11   3795.263630   1287.433129  30429.599288      0.105750                    
P 12  -2588.889994  15257.753939 -21835.952737     65.724829                    
V 12 -24252.844842 -12107.388210  -5499.755183     -0.050350                    
P 13 -13014.618639  13324.006087  18766.705096     46.358646                    
V 13  -1202.416142 -24121.099071  16289.652591      0.035936                    
P 15  -5026.024534  22076.685042  13244.594950   -202.899698                    
V 15  -7236.228503 -16383.445619  24332.161259      0.025989                    
P 16  18918.505144  -3805.706172  18227.662550   -210.626284                    
V 16  20079.248998  12044.692262 -17672.508020     -0.050802                    
P 17 -13588.600664 -11451.427691 -19329.372218    327.542358                    
V 17   -512.730057 -25412.940708  15045.434835      0.054802                    
P 18   7061.676057  13478.201153  21754.832710    292.240628                    
V 18 -22623.578165  15884.936778  -2541.675873      0.068975                    
P 19 -14794.247657  -3530.258285 -22073.434995   -103.376657                    
V 19   -200.727058 -27255.604031   4489.978179      0.050555                    
P 20  17557.764496  14964.015674  13295.853731    526.699645                    
V 20 -17090.619773  -1868.571006  24281.053097     -0.001209                    
P 21  22342.840601 -12396.453957   7397.727464     48.368977                    
V 21  -4483.636475   7803.916673  29927.160390      0.041751                    
P 22   8336.770250 -13682.055057 -20971.560185   -753.227556                    
V 22  25704.304930   8979.500997   4468.821898      0.040434                    
P 23  18197.319120  15713.188104  11270.211537     68.785984                    
V 23 -14223.515984  -3081.913873  27170.314377      0.083082                    
P 24 -11695.382599  20912.150845 -11246.449102    -18.678272                    
V 24 -12904.771951   6699.021250  26742.837401     -0.004825                    
P 25  10247.202399  17567.578825 -17457.994483     50.742237                    
V 25 -20420.426444  -7174.743174 -19214.192788      0.054762                    
P 26  25252.703318   3701.730067   7744.607242    280.726866                    
V 26   8135.213768   6252.442559 -29159.264897      0.064198                    
P 27  12748.407704 -10369.934066  20640.577447   -398.256120                    
V 27   4148.556143  26271.326932  10889.030189     -0.089073                    
P 28 -22907.435058 -13259.789820   1082.860545    677.521120                    
V 28   1769.209922  -1845.477321  32152.903264     -0.041488                    
P 29   3918.081118  25939.110340   3954.515666   -197.157920                    
V 29  -1782.946011   5161.078107 -31806.297070     -0.080634                    
P 30 -16038.408057  -6798.955585  20154.508806   -303.872747                    
V 30  20232.093210 -15573.480554  10657.233701     -0.070958                    
P 31  22107.043232  -2892.858156 -14824.189348    -69.417805                    
V 31 -14068.231471  12251.521816 -22995.278010     -0.024066                    
P 32  15079.618906   9885.689128 -19468.398892    347.652687                    
V 32   1937.669419  24819.293407  13891.427524      0.046602                    
EOF
